NOAA 15                 
1 25338U 98030A   17357.54695184  .00000028  00000-0  30583-4 0  9999
2 25338  98.7773   8.7918 0010919  22.5073 337.6583 14.25831965 19982
NOAA 18                 
1 28654U 05018A   17357.48878939 -.00000005  00000-0  22420-4 0  9998
2 28654  99.1663  24.1799 0013483 259.8952 100.0697 14.12361495648975
METOP-A                 
1 29499U 06044A   17357.50496334  .00000006  00000-0  22506-4 0  9999
2 29499  98.6540  53.7095 0001269  50.3748  62.3939 14.21512164580036
NOAA 19                 
1 33591U 09005A   17357.50937897  .00000102  00000-0  80216-4 0  9990
2 33591  99.1197 327.2689 0014931  99.3788 260.9072 14.12239753457388
METOP-B                 
1 38771U 12049A   17356.97056896  .00000015  00000-0  26697-4 0  9994
2 38771  98.6989  54.2412 0002128  84.2334 333.4712 14.21490580273102
SARAL                   
1 39086U 13009A   17357.52519714 -.00000025  00000-0  67573-5 0  9997
2 39086  98.5369 182.1639 0002053  71.1180 289.0227 14.32004360252200
